{
  "norad_id": 66493,
  "name": "STARLINK-35597",
  "history": [
    {
      "epoch": "2026-03-28T18:27:22.521024",
      "apogee_km": 484.1542011757283,
      "perigee_km": 481.7551518601176,
      "latitude_deg": -42.88844098562043,
      "longitude_deg": -176.8749766398687,
      "semi_major_axis_km": 6861.091676517923,
      "eccentricity": 0.00017483,
      "inclination_deg": 43.0001,
      "raan_deg": 243.2231,
      "arg_perigee_deg": 264.8986,
      "mean_anomaly_deg": 95.1666,
      "mean_motion_rev_day": 15.27611533
    }
  ]
}