{"fetched_at":"2026-03-29T16:36:15Z","count":15609,"tles":[{"name":"STARLINK-35597","line1":"1 66493U 25263J   26087.76901066  .00027055  00000+0  98810-3 0  9991","line2":"2 66493  43.0001 243.2231 0001748 264.8986  95.1666 15.27611533 21817","category":"Starlink"}]}